{
  "norad_id": 51788,
  "name": "STARLINK-3641",
  "history": [
    {
      "epoch": "2026-03-28T18:56:16.022976Z",
      "apogee_km": 540.7780580350309,
      "perigee_km": 538.7054615585957,
      "latitude_deg": 2.390013620534143e-05,
      "longitude_deg": 153.11027232858433,
      "height_km": 540.6688728720446,
      "semi_major_axis_km": 6917.878759796813,
      "eccentricity": 0.0001498,
      "inclination_deg": 53.2163,
      "raan_deg": 263.3815,
      "arg_perigee_deg": 91.754,
      "mean_anomaly_deg": 268.3624,
      "mean_motion_rev_day": 15.08840533
    }
  ]
}